[{"OBJECT_NAME":"ONEWEB-0713","OBJECT_ID":"2023-004AM","EPOCH":"2025-12-22T04:27:20.700864","MEAN_MOTION":13.11415459,"ECCENTRICITY":0.00018668,"INCLINATION":87.885,"RA_OF_ASC_NODE":56.309,"ARG_OF_PERICENTER":117.158,"MEAN_ANOMALY":242.9739,"EPHEMERIS_TYPE":0,"CLASSIFICATION_TYPE":"U","NORAD_CAT_ID":55175,"ELEMENT_SET_NO":999,"REV_AT_EPOCH":14262,"BSTAR":-0.00031553492,"MEAN_MOTION_DOT":-9.9e-7,"MEAN_MOTION_DDOT":0},{"OBJECT_NAME":"ONEWEB-0715","OBJECT_ID":"2023-004AN","EPOCH":"2025-12-21T17:20:48.929856","MEAN_MOTION":13.11412803,"ECCENTRICITY":0.00010568,"INCLINATION":87.8849,"RA_OF_ASC_NODE":56.4018,"ARG_OF_PERICENTER":103.0801,"MEAN_ANOMALY":257.0445,"EPHEMERIS_TYPE":0,"CLASSIFICATION_TYPE":"U","NORAD_CAT_ID":55176,"ELEMENT_SET_NO":999,"REV_AT_EPOCH":14260,"BSTAR":-1.8051198e-5,"MEAN_MOTION_DOT":6.0e-8,"MEAN_MOTION_DDOT":0},{"OBJECT_NAME":"ONEWEB-0716","OBJECT_ID":"2023-004AP","EPOCH":"2025-12-22T04:33:20.225952","MEAN_MOTION":13.17650055,"ECCENTRICITY":0.00019211,"INCLINATION":87.9101,"RA_OF_ASC_NODE":41.0635,"ARG_OF_PERICENTER":92.5613,"MEAN_ANOMALY":267.5739,"EPHEMERIS_TYPE":0,"CLASSIFICATION_TYPE":"U","NORAD_CAT_ID":55177,"ELEMENT_SET_NO":999,"REV_AT_EPOCH":14427,"BSTAR":0.00020968274,"MEAN_MOTION_DOT":9.4e-7,"MEAN_MOTION_DDOT":0},{"OBJECT_NAME":"ONEWEB-0717","OBJECT_ID":"2023-004AQ","EPOCH":"2025-12-22T02:19:40.862208","MEAN_MOTION":13.17650186,"ECCENTRICITY":0.00017405,"INCLINATION":87.9113,"RA_OF_ASC_NODE":41.0534,"ARG_OF_PERICENTER":121.5564,"MEAN_ANOMALY":238.5737,"EPHEMERIS_TYPE":0,"CLASSIFICATION_TYPE":"U","NORAD_CAT_ID":55178,"ELEMENT_SET_NO":999,"REV_AT_EPOCH":14431,"BSTAR":5.2101278e-5,"MEAN_MOTION_DOT":3.3e-7,"MEAN_MOTION_DDOT":0},{"OBJECT_NAME":"ONEWEB-0719","OBJECT_ID":"2023-004AR","EPOCH":"2025-12-22T04:23:37.681728","MEAN_MOTION":13.17648186,"ECCENTRICITY":0.00020244,"INCLINATION":87.9107,"RA_OF_ASC_NODE":41.0187,"ARG_OF_PERICENTER":98.7806,"MEAN_ANOMALY":261.3555,"EPHEMERIS_TYPE":0,"CLASSIFICATION_TYPE":"U","NORAD_CAT_ID":55179,"ELEMENT_SET_NO":999,"REV_AT_EPOCH":14427,"BSTAR":0.00016906946,"MEAN_MOTION_DOT":7.9e-7,"MEAN_MOTION_DDOT":0},{"OBJECT_NAME":"ONEWEB-0530","OBJECT_ID":"2023-029A","EPOCH":"2025-12-21T21:29:15.306720","MEAN_MOTION":13.20771259,"ECCENTRICITY":0.00019578,"INCLINATION":87.9209,"RA_OF_ASC_NODE":309.8418,"ARG_OF_PERICENTER":96.2648,"MEAN_ANOMALY":263.8709,"EPHEMERIS_TYPE":0,"CLASSIFICATION_TYPE":"U","NORAD_CAT_ID":55796,"ELEMENT_SET_NO":999,"REV_AT_EPOCH":13774,"BSTAR":0.00013398752,"MEAN_MOTION_DOT":6.7e-7,"MEAN_MOTION_DDOT":0},{"OBJECT_NAME":"ONEWEB-0534","OBJECT_ID":"2023-029B","EPOCH":"2025-12-22T06:16:32.005920","MEAN_MOTION":13.20770106,"ECCENTRICITY":0.00019558,"INCLINATION":87.921,"RA_OF_ASC_NODE":309.7695,"ARG_OF_PERICENTER":78.71,"MEAN_ANOMALY":281.4253,"EPHEMERIS_TYPE":0,"CLASSIFICATION_TYPE":"U","NORAD_CAT_ID":55797,"ELEMENT_SET_NO":999,"REV_AT_EPOCH":13779,"BSTAR":1.8635545e-5,"MEAN_MOTION_DOT":2.1e-7,"MEAN_MOTION_DDOT":0},{"OBJECT_NAME":"ONEWEB-0556","OBJECT_ID":"2023-029C","EPOCH":"2025-12-22T06:25:37.046496","MEAN_MOTION":13.20773038,"ECCENTRICITY":0.00028222,"INCLINATION":87.921,"RA_OF_ASC_NODE":309.7686,"ARG_OF_PERICENTER":83.5619,"MEAN_ANOMALY":276.5836,"EPHEMERIS_TYPE":0,"CLASSIFICATION_TYPE":"U","NORAD_CAT_ID":55798,"ELEMENT_SET_NO":999,"REV_AT_EPOCH":13779,"BSTAR":5.3988428e-5,"MEAN_MOTION_DOT":3.5e-7,"MEAN_MOTION_DDOT":0},{"OBJECT_NAME":"ONEWEB-0562","OBJECT_ID":"2023-029D","EPOCH":"2025-12-22T04:18:21.763584","MEAN_MOTION":13.20772514,"ECCENTRICITY":0.00024074,"INCLINATION":87.9207,"RA_OF_ASC_NODE":309.7681,"ARG_OF_PERICENTER":99.6794,"MEAN_ANOMALY":260.4612,"EPHEMERIS_TYPE":0,"CLASSIFICATION_TYPE":"U","NORAD_CAT_ID":55799,"ELEMENT_SET_NO":999,"REV_AT_EPOCH":13778,"BSTAR":0.00010312878,"MEAN_MOTION_DOT":5.5e-7,"MEAN_MOTION_DDOT":0},{"OBJECT_NAME":"ONEWEB-0563","OBJECT_ID":"2023-029E","EPOCH":"2025-12-22T05:58:21.273312","MEAN_MOTION":13.20769599,"ECCENTRICITY":0.00020802,"INCLINATION":87.9213,"RA_OF_ASC_NODE":309.7818,"ARG_OF_PERICENTER":74.0595,"MEAN_ANOMALY":286.0768,"EPHEMERIS_TYPE":0,"CLASSIFICATION_TYPE":"U","NORAD_CAT_ID":55800,"ELEMENT_SET_NO":999,"REV_AT_EPOCH":13778,"BSTAR":-6.5221462e-5,"MEAN_MOTION_DOT":-1.4e-7,"MEAN_MOTION_DDOT":0},{"OBJECT_NAME":"ONEWEB-0564","OBJECT_ID":"2023-029F","EPOCH":"2025-12-22T05:49:15.943296","MEAN_MOTION":13.20769962,"ECCENTRICITY":0.00020392,"INCLINATION":87.9208,"RA_OF_ASC_NODE":309.7591,"ARG_OF_PERICENTER":90.8758,"MEAN_ANOMALY":269.2609,"EPHEMERIS_TYPE":0,"CLASSIFICATION_TYPE":"U","NORAD_CAT_ID":55801,"ELEMENT_SET_NO":999,"REV_AT_EPOCH":13779,"BSTAR":-8.8124527e-5,"MEAN_MOTION_DOT":-2.3e-7,"MEAN_MOTION_DDOT":0},{"OBJECT_NAME":"ONEWEB-0638","OBJECT_ID":"2023-029G","EPOCH":"2025-12-21T23:06:00.601344","MEAN_MOTION":13.14504549,"ECCENTRICITY":0.0002267,"INCLINATION":87.8997,"RA_OF_ASC_NODE":325.0766,"ARG_OF_PERICENTER":88.8689,"MEAN_ANOMALY":271.27,"EPHEMERIS_TYPE":0,"CLASSIFICATION_TYPE":"U","NORAD_CAT_ID":55802,"ELEMENT_SET_NO":999,"REV_AT_EPOCH":13611,"BSTAR":-0.00061043,"MEAN_MOTION_DOT":-2.14e-6,"MEAN_MOTION_DDOT":0},{"OBJECT_NAME":"ONEWEB-0639","OBJECT_ID":"2023-029H","EPOCH":"2025-12-21T22:10:24.277440","MEAN_MOTION":13.19725614,"ECCENTRICITY":0.00021966,"INCLINATION":87.9202,"RA_OF_ASC_NODE":340.2505,"ARG_OF_PERICENTER":56.8329,"MEAN_ANOMALY":303.3015,"EPHEMERIS_TYPE":0,"CLASSIFICATION_TYPE":"U","NORAD_CAT_ID":55803,"ELEMENT_SET_NO":999,"REV_AT_EPOCH":13552,"BSTAR":0.00037049915,"MEAN_MOTION_DOT":1.61e-6,"MEAN_MOTION_DDOT":0},{"OBJECT_NAME":"ONEWEB-0640","OBJECT_ID":"2023-029J","EPOCH":"2025-12-22T04:48:31.917024","MEAN_MOTION":13.14505398,"ECCENTRICITY":0.00025866,"INCLINATION":87.8996,"RA_OF_ASC_NODE":325.0174,"ARG_OF_PERICENTER":79.5919,"MEAN_ANOMALY":280.5502,"EPHEMERIS_TYPE":0,"CLASSIFICATION_TYPE":"U","NORAD_CAT_ID":55804,"ELEMENT_SET_NO":999,"REV_AT_EPOCH":13616,"BSTAR":0.0001688916,"MEAN_MOTION_DOT":7.5e-7,"MEAN_MOTION_DDOT":0},{"OBJECT_NAME":"ONEWEB-0641","OBJECT_ID":"2023-029K","EPOCH":"2025-12-22T05:20:16.790784","MEAN_MOTION":13.19725694,"ECCENTRICITY":0.00018178,"INCLINATION":87.9209,"RA_OF_ASC_NODE":340.1731,"ARG_OF_PERICENTER":79.9286,"MEAN_ANOMALY":280.2052,"EPHEMERIS_TYPE":0,"CLASSIFICATION_TYPE":"U","NORAD_CAT_ID":55805,"ELEMENT_SET_NO":999,"REV_AT_EPOCH":13557,"BSTAR":9.5716755e-5,"MEAN_MOTION_DOT":5.1e-7,"MEAN_MOTION_DDOT":0},{"OBJECT_NAME":"ONEWEB-0642","OBJECT_ID":"2023-029L","EPOCH":"2025-12-21T21:56:45.280608","MEAN_MOTION":13.19725591,"ECCENTRICITY":0.00018296,"INCLINATION":87.9197,"RA_OF_ASC_NODE":340.2566,"ARG_OF_PERICENTER":57.1463,"MEAN_ANOMALY":302.9846,"EPHEMERIS_TYPE":0,"CLASSIFICATION_TYPE":"U","NORAD_CAT_ID":55806,"ELEMENT_SET_NO":999,"REV_AT_EPOCH":13552,"BSTAR":0.00015715913,"MEAN_MOTION_DOT":7.6e-7,"MEAN_MOTION_DDOT":0},{"OBJECT_NAME":"ONEWEB-0643","OBJECT_ID":"2023-029M","EPOCH":"2025-12-21T22:36:18.926208","MEAN_MOTION":13.14501074,"ECCENTRICITY":0.00015762,"INCLINATION":87.9001,"RA_OF_ASC_NODE":325.0557,"ARG_OF_PERICENTER":60.6269,"MEAN_ANOMALY":299.5018,"EPHEMERIS_TYPE":0,"CLASSIFICATION_TYPE":"U","NORAD_CAT_ID":55807,"ELEMENT_SET_NO":999,"REV_AT_EPOCH":13610,"BSTAR":-0.00066465819,"MEAN_MOTION_DOT":-2.34e-6,"MEAN_MOTION_DDOT":0}]
