ONEWEB-0713             
1 55175U 23004AM  25356.18565626 -.00000099  00000+0 -31553-3 0  9991
2 55175  87.8850  56.3090 0001866 117.1580 242.9739 13.11415459142623
ONEWEB-0715             
1 55176U 23004AN  25355.72278854  .00000006  00000+0 -18051-4 0  9991
2 55176  87.8849  56.4018 0001056 103.0801 257.0445 13.11412803142603
ONEWEB-0716             
1 55177U 23004AP  25356.18981743  .00000094  00000+0  20968-3 0  9996
2 55177  87.9101  41.0635 0001921  92.5613 267.5739 13.17650055144271
ONEWEB-0717             
1 55178U 23004AQ  25356.09700072  .00000033  00000+0  52101-4 0  9999
2 55178  87.9113  41.0534 0001740 121.5564 238.5737 13.17650186144316
ONEWEB-0719             
1 55179U 23004AR  25356.18307502  .00000079  00000+0  16907-3 0  9994
2 55179  87.9107  41.0187 0002024  98.7806 261.3555 13.17648186144278
ONEWEB-0530             
1 55796U 23029A   25355.89531605  .00000067  00000+0  13399-3 0  9995
2 55796  87.9209 309.8418 0001957  96.2648 263.8709 13.20771259137743
ONEWEB-0534             
1 55797U 23029B   25356.26148155  .00000021  00000+0  18636-4 0  9992
2 55797  87.9210 309.7695 0001955  78.7100 281.4253 13.20770106137793
ONEWEB-0556             
1 55798U 23029C   25356.26778989  .00000035  00000+0  53988-4 0  9991
2 55798  87.9210 309.7686 0002822  83.5619 276.5836 13.20773038137796
ONEWEB-0562             
1 55799U 23029D   25356.17941856  .00000055  00000+0  10313-3 0  9993
2 55799  87.9207 309.7681 0002407  99.6794 260.4612 13.20772514137780
ONEWEB-0563             
1 55800U 23029E   25356.24885733 -.00000014  00000+0 -65221-4 0  9991
2 55800  87.9213 309.7818 0002080  74.0595 286.0768 13.20769599137780
ONEWEB-0564             
1 55801U 23029F   25356.24254564 -.00000023  00000+0 -88125-4 0  9992
2 55801  87.9208 309.7591 0002039  90.8758 269.2609 13.20769962137796
ONEWEB-0638             
1 55802U 23029G   25355.96250696 -.00000214  00000+0 -61043-3 0  9994
2 55802  87.8997 325.0766 0002267  88.8689 271.2700 13.14504549136110
ONEWEB-0639             
1 55803U 23029H   25355.92389210  .00000161  00000+0  37050-3 0  9996
2 55803  87.9202 340.2505 0002196  56.8329 303.3015 13.19725614135521
ONEWEB-0640             
1 55804U 23029J   25356.20036941  .00000075  00000+0  16889-3 0  9990
2 55804  87.8996 325.0174 0002586  79.5919 280.5502 13.14505398136162
ONEWEB-0641             
1 55805U 23029K   25356.22241656  .00000051  00000+0  95717-4 0  9996
2 55805  87.9209 340.1731 0001817  79.9286 280.2052 13.19725694135574
ONEWEB-0642             
1 55806U 23029L   25355.91441297  .00000076  00000+0  15716-3 0  9992
2 55806  87.9197 340.2566 0001829  57.1463 302.9846 13.19725591135520
ONEWEB-0643             
1 55807U 23029M   25355.94188572 -.00000234  00000+0 -66466-3 0  9996
2 55807  87.9001 325.0557 0001576  60.6269 299.5018 13.14501074136108
